CALSPHERE 1             
1 00900U 64063C   21287.53873388  .00000304  00000-0  31498-3 0  9998
2 00900  90.1706  36.5009 0027865  45.7415 327.3145 13.73600167836906